[{"OBJECT_NAME":"STARLINK-32092","OBJECT_ID":"2024-086U","EPOCH":"2026-03-09T01:16:56.822016","MEAN_MOTION":15.27581312,"ECCENTRICITY":0.00016032,"INCLINATION":43.0043,"RA_OF_ASC_NODE":63.5881,"ARG_OF_PERICENTER":271.6873,"MEAN_ANOMALY":88.3795,"EPHEMERIS_TYPE":0,"CLASSIFICATION_TYPE":"U","NORAD_CAT_ID":59700,"ELEMENT_SET_NO":999,"REV_AT_EPOCH":10401,"BSTAR":1.8738806e-5,"MEAN_MOTION_DOT":2.53e-6,"MEAN_MOTION_DDOT":0},{"OBJECT_NAME":"TEVEL2-5","OBJECT_ID":"2025-052E","EPOCH":"2026-03-09T23:11:54.246048","MEAN_MOTION":15.30817434,"ECCENTRICITY":0.00047002,"INCLINATION":97.4013,"RA_OF_ASC_NODE":325.3677,"ARG_OF_PERICENTER":95.3936,"MEAN_ANOMALY":264.7842,"EPHEMERIS_TYPE":0,"CLASSIFICATION_TYPE":"U","NORAD_CAT_ID":63214,"ELEMENT_SET_NO":999,"REV_AT_EPOCH":5491,"BSTAR":0.00071764727,"MEAN_MOTION_DOT":0.00021339,"MEAN_MOTION_DDOT":0}]
